{"type": "FeatureCollection", "features": [ {"type": "Feature", "properties": {"norad_id": 33799, "name": "COSMOS 2251 DEB", "group": "cosmos-2251-debris", "lat": 52.8651875545168, "lon": 110.56566846177728, "alt_km": 629.6602961326889, "timestamp": "2025-12-09T09:46:48.038139+00:00", "meta": {"OBJECT_NAME": "COSMOS 2251 DEB", "OBJECT_ID": "1993-036AQ", "EPOCH": "2025-12-08T18:00:12.146112", "MEAN_MOTION": 14.79481859, "ECCENTRICITY": 0.00237886, "INCLINATION": 74.0324, "RA_OF_ASC_NODE": 89.6423, "ARG_OF_PERICENTER": 161.7308, "MEAN_ANOMALY": 354.8729, "EPHEMERIS_TYPE": 0, "CLASSIFICATION_TYPE": "U", "NORAD_CAT_ID": 33799, "ELEMENT_SET_NO": 999, "REV_AT_EPOCH": 88752, "BSTAR": 0.0017589241, "MEAN_MOTION_DOT": 0.000132, "MEAN_MOTION_DDOT": 0}, "tle": {"line1": "1 33799U 93036AQ  25342.75014058  .00013200  00000+0  17589-2 0  9995", "line2": "2 33799  74.0324  89.6423 0023788 161.7308 354.8729 14.79481859887523"}}, "geometry": {"type": "Point", "coordinates": [110.56566846177728, 52.8651875545168]}}, {"type": "Feature", "properties": {"norad_id": 33805, "name": "COSMOS 2251 DEB", "group": "cosmos-2251-debris", "lat": 74.01859491812107, "lon": 48.848698821934946, "alt_km": 669.4663961082333, "timestamp": "2025-12-09T09:46:48.038162+00:00", "meta": {"OBJECT_NAME": "COSMOS 2251 DEB", "OBJECT_ID": "1993-036AW", "EPOCH": "2025-12-09T01:07:53.830848", "MEAN_MOTION": 14.57842138, "ECCENTRICITY": 0.006033, "INCLINATION": 74.0318, "RA_OF_ASC_NODE": 318.3556, "ARG_OF_PERICENTER": 148.4007, "MEAN_ANOMALY": 212.0803, "EPHEMERIS_TYPE": 0, "CLASSIFICATION_TYPE": "U", "NORAD_CAT_ID": 33805, "ELEMENT_SET_NO": 999, "REV_AT_EPOCH": 89173, "BSTAR": 0.00033969, "MEAN_MOTION_DOT": 1.565e-05, "MEAN_MOTION_DDOT": 0}, "tle": {"line1": "1 33805U 93036AW  25343.04715082  .00001565  00000+0  33969-3 0  9993", "line2": "2 33805  74.0318 318.3556 0060330 148.4007 212.0803 14.57842138891738"}}, "geometry": {"type": "Point", "coordinates": [48.848698821934946, 74.01859491812107]}}, {"type": "Feature", "properties": {"norad_id": 33811, "name": "COSMOS 2251 DEB", "group": "cosmos-2251-debris", "lat": 62.90464508558961, "lon": 95.0366703354648, "alt_km": 541.4224130858383, "timestamp": "2025-12-09T09:46:48.038182+00:00", "meta": {"OBJECT_NAME": "COSMOS 2251 DEB", "OBJECT_ID": "1993-036BC", "EPOCH": "2025-12-09T01:38:12.962976", "MEAN_MOTION": 15.05080547, "ECCENTRICITY": 0.0030701, "INCLINATION": 73.8381, "RA_OF_ASC_NODE": 310.2695, "ARG_OF_PERICENTER": 31.5287, "MEAN_ANOMALY": 42.4911, "EPHEMERIS_TYPE": 0, "CLASSIFICATION_TYPE": "U", "NORAD_CAT_ID": 33811, "ELEMENT_SET_NO": 999, "REV_AT_EPOCH": 89963, "BSTAR": 0.0014587, "MEAN_MOTION_DOT": 0.00020987, "MEAN_MOTION_DDOT": 0}, "tle": {"line1": "1 33811U 93036BC  25343.06820559  .00020987  00000+0  14587-2 0  9991", "line2": "2 33811  73.8381 310.2695 0030701  31.5287  42.4911 15.05080547899632"}}, "geometry": {"type": "Point", "coordinates": [95.0366703354648, 62.90464508558961]}}, {"type": "Feature", "properties": {"norad_id": 33815, "name": "COSMOS 2251 DEB", "group": "cosmos-2251-debris", "lat": 32.03387807698851, "lon": -166.04838385938547, "alt_km": 515.5053116488089, "timestamp": "2025-12-09T09:46:48.038199+00:00", "meta": {"OBJECT_NAME": "COSMOS 2251 DEB", "OBJECT_ID": "1993-036BG", "EPOCH": "2025-12-08T23:04:54.503616", "MEAN_MOTION": 15.16639862, "ECCENTRICITY": 0.00030177, "INCLINATION": 73.9528, "RA_OF_ASC_NODE": 184.5101, "ARG_OF_PERICENTER": 229.9077, "MEAN_ANOMALY": 250.8357, "EPHEMERIS_TYPE": 0, "CLASSIFICATION_TYPE": "U", "NORAD_CAT_ID": 33815, "ELEMENT_SET_NO": 999, "REV_AT_EPOCH": 88313, "BSTAR": 0.006461729, "MEAN_MOTION_DOT": 0.00128686, "MEAN_MOTION_DDOT": 0}, "tle": {"line1": "1 33815U 93036BG  25342.96174194  .00128686  00000+0  64617-2 0  9994", "line2": "2 33815  73.9528 184.5101 0003017 229.9077 250.8357 15.16639862883133"}}, "geometry": {"type": "Point", "coordinates": [-166.04838385938547, 32.03387807698851]}}, {"type": "Feature", "properties": {"norad_id": 33816, "name": "COSMOS 2251 DEB", "group": "cosmos-2251-debris", "lat": 70.09305662168542, "lon": 163.9662406462787, "alt_km": 813.8694858026201, "timestamp": "2025-12-09T09:46:48.038211+00:00", "meta": {"OBJECT_NAME": "COSMOS 2251 DEB", "OBJECT_ID": "1993-036BH", "EPOCH": "2025-12-08T19:30:15.806880", "MEAN_MOTION": 13.81776004, "ECCENTRICITY": 0.02649297, "INCLINATION": 73.8945, "RA_OF_ASC_NODE": 112.0515, "ARG_OF_PERICENTER": 125.7474, "MEAN_ANOMALY": 236.8604, "EPHEMERIS_TYPE": 0, "CLASSIFICATION_TYPE": "U", "NORAD_CAT_ID": 33816, "ELEMENT_SET_NO": 999, "REV_AT_EPOCH": 84619, "BSTAR": 0.00097318108, "MEAN_MOTION_DOT": 1.339e-05, "MEAN_MOTION_DDOT": 0}, "tle": {"line1": "1 33816U 93036BH  25342.81268295  .00001339  00000+0  97318-3 0  9995", "line2": "2 33816  73.8945 112.0515 0264929 125.7474 236.8604 13.81776004846190"}}, "geometry": {"type": "Point", "coordinates": [163.9662406462787, 70.09305662168542]}}, {"type": "Feature", "properties": {"norad_id": 33818, "name": "COSMOS 2251 DEB", "group": "cosmos-2251-debris", "lat": -16.558463629327214, "lon": 168.2574225583054, "alt_km": 553.8342776397176, "timestamp": "2025-12-09T09:46:48.038222+00:00", "meta": {"OBJECT_NAME": "COSMOS 2251 DEB", "OBJECT_ID": "1993-036BK", "EPOCH": "2025-12-08T23:26:25.440576", "MEAN_MOTION": 15.12033467, "ECCENTRICITY": 0.00280489, "INCLINATION": 74.0755, "RA_OF_ASC_NODE": 174.0167, "ARG_OF_PERICENTER": 164.1684, "MEAN_ANOMALY": 354.6151, "EPHEMERIS_TYPE": 0, "CLASSIFICATION_TYPE": "U", "NORAD_CAT_ID": 33818, "ELEMENT_SET_NO": 999, "REV_AT_EPOCH": 89805, "BSTAR": 0.0025467031, "MEAN_MOTION_DOT": 0.00044425, "MEAN_MOTION_DDOT": 0}, "tle": {"line1": "1 33818U 93036BK  25342.97668334  .00044425  00000+0  25467-2 0  9990", "line2": "2 33818  74.0755 174.0167 0028048 164.1684 354.6151 15.12033467898058"}}, "geometry": {"type": "Point", "coordinates": [168.2574225583054, -16.558463629327214]}}, {"type": "Feature", "properties": {"norad_id": 33819, "name": "COSMOS 2251 DEB", "group": "cosmos-2251-debris", "lat": -13.912711035926225, "lon": -148.15435728522266, "alt_km": 790.9185205774465, "timestamp": "2025-12-09T09:46:48.038233+00:00", "meta": {"OBJECT_NAME": "COSMOS 2251 DEB", "OBJECT_ID": "1993-036BL", "EPOCH": "2025-12-08T19:06:06.865920", "MEAN_MOTION": 14.32203322, "ECCENTRICITY": 0.00889375, "INCLINATION": 74.1791, "RA_OF_ASC_NODE": 216.9791, "ARG_OF_PERICENTER": 79.5134, "MEAN_ANOMALY": 355.115, "EPHEMERIS_TYPE": 0, "CLASSIFICATION_TYPE": "U", "NORAD_CAT_ID": 33819, "ELEMENT_SET_NO": 999, "REV_AT_EPOCH": 87439, "BSTAR": 0.0011045221, "MEAN_MOTION_DOT": 3.086e-05, "MEAN_MOTION_DDOT": 0}, "tle": {"line1": "1 33819U 93036BL  25342.79591280  .00003086  00000+0  11045-2 0  9991", "line2": "2 33819  74.1791 216.9791 0088937  79.5134 355.1150 14.32203322874397"}}, "geometry": {"type": "Point", "coordinates": [-148.15435728522266, -13.912711035926225]}}, {"type": "Feature", "properties": {"norad_id": 33821, "name": "COSMOS 2251 DEB", "group": "cosmos-2251-debris", "lat": -9.254920268921389, "lon": 147.20568566075062, "alt_km": 529.9100593699313, "timestamp": "2025-12-09T09:46:48.038244+00:00", "meta": {"OBJECT_NAME": "COSMOS 2251 DEB", "OBJECT_ID": "1993-036BN", "EPOCH": "2025-12-08T21:13:35.685984", "MEAN_MOTION": 15.2494624, "ECCENTRICITY": 0.00528386, "INCLINATION": 74.0299, "RA_OF_ASC_NODE": 150.9851, "ARG_OF_PERICENTER": 185.4158, "MEAN_ANOMALY": 174.6478, "EPHEMERIS_TYPE": 0, "CLASSIFICATION_TYPE": "U", "NORAD_CAT_ID": 33821, "ELEMENT_SET_NO": 999, "REV_AT_EPOCH": 74942, "BSTAR": 0.0014441641, "MEAN_MOTION_DOT": 0.00037598, "MEAN_MOTION_DDOT": 0}, "tle": {"line1": "1 33821U 93036BN  25342.88444081  .00037598  00000+0  14442-2 0  9999", "line2": "2 33821  74.0299 150.9851 0052838 185.4158 174.6478 15.24946240749427"}}, "geometry": {"type": "Point", "coordinates": [147.20568566075062, -9.254920268921389]}}, {"type": "Feature", "properties": {"norad_id": 33822, "name": "COSMOS 2251 DEB", "group": "cosmos-2251-debris", "lat": 41.44280800058125, "lon": -145.82846842173086, "alt_km": 947.1566057020218, "timestamp": "2025-12-09T09:46:48.038262+00:00", "meta": {"OBJECT_NAME": "COSMOS 2251 DEB", "OBJECT_ID": "1993-036BP", "EPOCH": "2025-12-08T23:56:56.449248", "MEAN_MOTION": 14.13041565, "ECCENTRICITY": 0.01536405, "INCLINATION": 74.0692, "RA_OF_ASC_NODE": 200.2874, "ARG_OF_PERICENTER": 247.4971, "MEAN_ANOMALY": 232.4599, "EPHEMERIS_TYPE": 0, "CLASSIFICATION_TYPE": "U", "NORAD_CAT_ID": 33822, "ELEMENT_SET_NO": 999, "REV_AT_EPOCH": 86001, "BSTAR": 0.001470442, "MEAN_MOTION_DOT": 3.045e-05, "MEAN_MOTION_DDOT": 0}, "tle": {"line1": "1 33822U 93036BP  25342.99787557  .00003045  00000+0  14704-2 0  9991", "line2": "2 33822  74.0692 200.2874 0153640 247.4971 232.4599 14.13041565860013"}}, "geometry": {"type": "Point", "coordinates": [-145.82846842173086, 41.44280800058125]}}, {"type": "Feature", "properties": {"norad_id": 33823, "name": "COSMOS 2251 DEB", "group": "cosmos-2251-debris", "lat": 34.46630867416961, "lon": 166.67424674919735, "alt_km": 957.3512638584016, "timestamp": "2025-12-09T09:46:48.038273+00:00", "meta": {"OBJECT_NAME": "COSMOS 2251 DEB", "OBJECT_ID": "1993-036BQ", "EPOCH": "2025-12-08T22:10:27.782688", "MEAN_MOTION": 13.98935381, "ECCENTRICITY": 0.0209297, "INCLINATION": 73.8094, "RA_OF_ASC_NODE": 156.0181, "ARG_OF_PERICENTER": 281.7986, "MEAN_ANOMALY": 197.8147, "EPHEMERIS_TYPE": 0, "CLASSIFICATION_TYPE": "U", "NORAD_CAT_ID": 33823, "ELEMENT_SET_NO": 999, "REV_AT_EPOCH": 85556, "BSTAR": 0.00098245555, "MEAN_MOTION_DOT": 1.684e-05, "MEAN_MOTION_DDOT": 0}, "tle": {"line1": "1 33823U 93036BQ  25342.92393267  .00001684  00000+0  98246-3 0  9997", "line2": "2 33823  73.8094 156.0181 0209297 281.7986 197.8147 13.98935381855560"}}, "geometry": {"type": "Point", "coordinates": [166.67424674919735, 34.46630867416961]}}]}